{
"type": "FeatureCollection",
"name": "heatmap",
"crs": { "type": "name", "properties": { "name": "urn:ogc:def:crs:OGC:1.3:CRS84" } },
"features": [
{ "type": "Feature", "properties": { "factory_name": "台泥和平廠", "latitude": 24.3006, "longitude": 121.75194, "area_km2": 0.56, "annual_capacity": 5600000, "isic_codes": "C_23_239", "ncis_score": 23.805087987673794, "crs_near": 66.641413379593445, "crs_mid": 51.3552849348034, "crs_long": 51.2334311323158, "dms_near": 40.939618144441653, "dms_mid": 34.825166766525633, "dms_long": 34.776425245530596, "ecs_score": 100.0, "quadrant": "Warning Zone (Climate)", "nodata_layers": "nature_access,sediment", "coastal_value_twd": 192670.63758561003, "nature_access_value_twd": 0.0, "norm_sediment": 0.3, "norm_nitrogen": 0.0, "norm_coastal": 0.0038967594997061338, "norm_nature_access": 0.3, "norm_species": 0.50439394195861831, "norm_red_list": 0.35257391208184535, "norm_endemic": 1.0, "norm_kba": 0.12719753190050989, "norm_hwdi_near": 0.57739278865125432, "norm_rx5day_near": 0.75543547894061447, "norm_hwdi_mid": 0.28526052824209275, "norm_rx5day_mid": 0.74184517045397536, "norm_hwdi_long": 0.23587886029632965, "norm_rx5day_long": 0.78878976234998643, "gain_sites_json": [ { "rank": 1, "center_lat": 24.329562, "center_lon": 121.714677, "gain_score": 0.0022, "area_km2": 82.71, "polygon_wkt": "POLYGON ((121.73545458776279 24.39078246724815, 121.73543891153474 24.388073956325552, 121.72360954016615 24.388130919359458, 121.72359411829824 24.385422400326235, 121.71472225499642 24.38546451128274, 121.7147070244115 24.382755985998635, 121.71766425142258 24.38274200847549, 121.71761838412841 24.374616432013475, 121.7205754199308 24.37460240205903, 121.72054472703651 24.369185349715572, 121.71758781716262 24.3691993761549, 121.71757253704818 24.366490846760687, 121.71165883647429 24.36651872314075, 121.71164368448808 24.36381018927694, 121.70868689379796 24.363824039239077, 121.70870198284243 24.36653257483859, 121.69687454623136 24.366587405011334, 121.6968893856874 24.369295946505396, 121.70871707410451 24.3692411094618, 121.70874726328236 24.374658175779032, 121.70579021855154 24.37467197500105, 121.70580525348875 24.37738050842366, 121.70876236119852 24.377366707472877, 121.70877746133316 24.380075238190113, 121.70286311772779 24.380102785851346, 121.70284814356978 24.377394251683672, 121.69693391714128 24.377421565130724, 121.69691907114216 24.374713026565175, 121.69396201763091 24.37472659505202, 121.69394723678354 24.372018053810425, 121.69099024407105 24.372031562920483, 121.69097552835693 24.369323019010302, 121.68801859644361 24.369336468757936, 121.68800394584422 24.366627922186602, 121.68209020147309 24.3666546453227, 121.68207567891355 24.363946094426982, 121.67911886646557 24.36395936783686, 121.67908995360861 24.35854225979207, 121.67613326489595 24.35855547223355, 121.67611887457056 24.355846915092073, 121.67316224665906 24.355860068242905, 121.67314792135595 24.35315150847749, 121.67019135424601 24.353164602352017, 121.67016283574351 24.347747476613332, 121.66720639232462 24.34776050959176, 121.66719219909729 24.345051943626068, 121.66423581647172 24.345064917364194, 121.66420756200885 24.339647779255376, 121.66125130303872 24.33966069214805, 121.66120912545061 24.33153497281862, 121.65825305294318 24.33154782328277, 121.65821108240618 24.323422090350338, 121.66116696646637 24.323409244722015, 121.66113887080975 24.31799208778804, 121.65818311233485 24.31800493019281, 121.658197096342 24.32071351075845, 121.655241273022 24.32072629723325, 121.65521343263187 24.315309131919346, 121.65816913038465 24.315296348653522, 121.65815515049113 24.31258776614065, 121.6551995155081 24.312600547802088, 121.65515777641968 24.30447478961006, 121.65220232764386 24.304487508960175, 121.65217463727556 24.29907032877234, 121.67581716601393 24.298966989975188, 121.67580282217436 24.296258411398103, 121.68171330800855 24.29623200518194, 121.68172777727392 24.298940580442768, 121.68468307971447 24.29892728945249, 121.68469761383109 24.301635862070665, 121.6876529768547 24.301622511921643, 121.68762378532602 24.296205369063998, 121.69648948517198 24.296164983824145, 121.69647470452084 24.293456416006368, 121.69351953610446 24.293469933530073, 121.69350482032176 24.290761363040794, 121.70237013095696 24.29072064318238, 121.70238503481909 24.293429208556944, 121.69942987076213 24.29344284101527, 121.69944471411567 24.29615140712807, 121.70535516544015 24.29612408131276, 121.70537013640082 24.298832643019868, 121.70241484912425 24.29884633638414, 121.70242975956768 24.3015548988366, 121.70538510956467 24.30154120375278, 121.70541506250278 24.306958322295724, 121.70837053576449 24.30694456626961, 121.70838557828709 24.30965312235249, 121.71134111208343 24.309639307089373, 121.71132600681314 24.30693075274069, 121.71428147563952 24.30691688170913, 121.71429664365732 24.309625434316395, 121.72020770010069 24.309597516241567, 121.72019240658852 24.306888967138786, 121.71723694223441 24.306902953175108, 121.71722171371007 24.30419440134176, 121.71426630985326 24.304208328127217, 121.7142511462983 24.301499773570743, 121.71720648742627 24.301485848533773, 121.7171912633828 24.29877729475123, 121.72014653955111 24.298763313982047, 121.72011597277317 24.293346207004692, 121.71716082201597 24.293360184262816, 121.71711517676286 24.285234511223052, 121.71416021181402 24.28524842577058, 121.71414506387232 24.282539864394433, 121.71709996615691 24.282525951594895, 121.71706955166133 24.277108829416697, 121.72002432640667 24.27709486269001, 121.71996327378494 24.266260613667924, 121.71700874952973 24.266274573375096, 121.71699355459134 24.263566006930763, 121.72290247565616 24.263538033639147, 121.72287184214912 24.258120904863095, 121.7258261741319 24.258106835675502, 121.72581079819018 24.255398271596246, 121.73171933021047 24.25536996466503, 121.73175033466141 24.26078708473101, 121.73765910785153 24.260758541165732, 121.73767473868001 24.263467096149622, 121.73472029064219 24.263481398419458, 121.73473586117434 24.266189954227396, 121.73769037181039 24.266175650159585, 121.73770600724288 24.26888420319554, 121.7436151468136 24.26885541926387, 121.74363090978109 24.271563967707834, 121.74067627853528 24.27157839018616, 121.74070768617334 24.27699548777639, 121.74366244267925 24.27698106167273, 121.74367821261036 24.279689607193497, 121.7466330294385 24.279675121848506, 121.74664886434414 24.28238366457464, 121.7496037414941 24.282369119974003, 121.7496196413927 24.285077659898047, 121.75257457886404 24.28506305602744, 121.75259054377406 24.287771593141954, 121.75554554156633 24.287756929987044, 121.7555615715062 24.290465464284573, 121.75851662961895 24.29045074183104, 121.75858102378568 24.30128486187102, 121.76744693630287 24.30124032740672, 121.76746322894388 24.30394884938599, 121.77041859105907 24.303933887716266, 121.77045130901118 24.309350924989953, 121.76749582141842 24.309365890416736, 121.76751212125241 24.31207440946804, 121.76160101337668 24.312104171537644, 121.7616171900844 24.31481269334859, 121.75570594716486 24.314842229068887, 121.75568989598239 24.31213370355103, 121.75273433373887 24.31214838328618, 121.75271834767126 24.30943985494993, 121.74976284582975 24.30945447533514, 121.7496832643945 24.29591180984463, 121.74672807384283 24.29592636358283, 121.7467439227382 24.298634900459408, 121.74083340923093 24.298663839154475, 121.74086486313033 24.304080917250012, 121.74382024649012 24.304066473015173, 121.74383603964738 24.306775008786616, 121.74679148341951 24.30676050523754, 121.7468390650982 24.314886101236574, 121.74388343306292 24.314900610248344, 121.74391504029525 24.320317673011505, 121.74095928038018 24.320332128128634, 121.74097502469205 24.323040659860546, 121.71732836044323 24.32315424370325, 121.71734360465712 24.325862788711852, 121.74099077131979 24.325749190616666, 121.74100652026362 24.328457720396905, 121.75578623850261 24.328384842017616, 121.75593091176665 24.352761483809292, 121.75297440710902 24.35277619119186, 121.75299043083412 24.355484703906, 121.75594699839327 24.35546999467966, 121.75601136854912 24.3663040283888, 121.75305454929139 24.366318744990984, 121.75308662265724 24.371735759669388, 121.7501296751379 24.371750422286468, 121.75014565238942 24.37445892999645, 121.74718863955584 24.374473536769706, 121.74722047514122 24.3798905529168, 121.74426333400753 24.379905105654462, 121.74427919231383 24.38261361408442, 121.7413219858555 24.382628110942, 121.74129039755314 24.37721108947332, 121.73833331475515 24.377225525011056, 121.73838051170425 24.385351061172933, 121.7413377834876 24.385336620209998, 121.74135358344056 24.388045128500323, 121.74431091591644 24.38803062801126, 121.74429505295008 24.38532212153671, 121.75020958487535 24.385292951059842, 121.7502255738679 24.388001453881156, 121.75318289932495 24.387986780240468, 121.75315079767225 24.382569777294787, 121.75610799475538 24.382555049626543, 121.75612410740607 24.38526354974376, 121.7590813651253 24.38524876252148, 121.75909754315546 24.387957259808733, 121.76205486151038 24.387942413018056, 121.76207110493851 24.390650907467887, 121.73545458776279 24.39078246724815), (121.73537622964619 24.377239902859948, 121.73833331475515 24.377225525011056, 121.73831758706103 24.37451701100229, 121.73536056492891 24.37453138705016, 121.73537622964619 24.377239902859948), (121.7264740112488 24.371865646955793, 121.72943097728944 24.37185144573312, 121.72941544309225 24.369142924388942, 121.72645854001058 24.369157123832416, 121.7264740112488 24.371865646955793), (121.69096081480512 24.366614474124162, 121.69687454623136 24.366587405011334, 121.69684487386088 24.361170319095255, 121.69388813510975 24.361183879083853, 121.69387336511922 24.35847533296257, 121.69683004094608 24.358461774673405, 121.69681521021124 24.355753229275788, 121.68794536497336 24.35579372614408, 121.6879600069625 24.35850227661813, 121.69091668712161 24.358488833610863, 121.69096081480512 24.366614474124162), (121.67314792135595 24.35315150847749, 121.682017610015 24.35311188108914, 121.68200309812428 24.350403325316336, 121.67313359815846 24.350442947737037, 121.67314792135595 24.35315150847749), (121.71453963559746 24.352962143414246, 121.7174961701522 24.352948185143592, 121.71746563910546 24.347531113663464, 121.71450923033163 24.347545068434613, 121.71449403105079 24.344836529480947, 121.71153768291914 24.344850424898894, 121.71155281932316 24.34755896559498, 121.70859640608931 24.347572805144402, 121.70861148183248 24.350281346599967, 121.71452443184712 24.3502536064124, 121.71453963559746 24.352962143414246), (121.68790145191751 24.347668068869428, 121.69085788047038 24.347654632601422, 121.6908431842098 24.344946079910613, 121.68788681853542 24.344959514493972, 121.68790145191751 24.347668068869428), (121.69972715312775 24.347613978125256, 121.70859640608931 24.347572805144402, 121.7085813325623 24.344864262713116, 121.69971226823304 24.3449054305317, 121.69972715312775 24.347613978125256), (121.66719219909729 24.345051943626068, 121.67014857963633 24.345038912281716, 121.67013432562494 24.342330346975366, 121.66717800795651 24.342343376685708, 121.66719219909729 24.345051943626068), (121.67604695466578 24.342304114758324, 121.68787218730456 24.342250959143364, 121.68785755822474 24.3395424028177, 121.68490131612869 24.33955577644135, 121.68488675205064 24.336847217463482, 121.6730620137485 24.336900129411855, 121.67307632642083 24.33960869502634, 121.67603257702785 24.339595551766873, 121.67604695466578 24.342304114758324), (121.69078442077044 24.33411185939597, 121.69965275053438 24.334071230403993, 121.69963787657873 24.331362677934106, 121.69076973531033 24.331403301829873, 121.69078442077044 24.33411185939597), (121.69963787657873 24.331362677934106, 121.70554995983707 24.33133530749516, 121.70553496242444 24.328626757483683, 121.69962300481026 24.328654124489198, 121.69963787657873 24.331362677934106), (121.70553496242444 24.328626757483683, 121.71735885111322 24.328571332745174, 121.71734360465712 24.325862788711852, 121.70551996721727 24.325918206497125, 121.70553496242444 24.328626757483683), (121.68482851715055 24.326012971804456, 121.68778444508436 24.325999606566146, 121.68776982890661 24.323291044391773, 121.68481396377754 24.323304407953213, 121.68482851715055 24.326012971804456), (121.68185809650808 24.323317713967185, 121.68481396377754 24.323304407953213, 121.68478486345253 24.317887277327532, 121.68182912176522 24.317900580002423, 121.68185809650808 24.323317713967185), (121.69363734035458 24.31513846238268, 121.69954867876879 24.31511134264213, 121.69951896365541 24.309694223081003, 121.6965634210614 24.309707808302985, 121.69657821476746 24.312416370276175, 121.69362260723919 24.31242989968563, 121.69363734035458 24.31513846238268), (121.6758889168794 24.312509868256605, 121.68180015554545 24.312483442140866, 121.68177119784711 24.307066300383166, 121.67586021019889 24.307092719865167, 121.6758889168794 24.312509868256605), (121.69360787629111 24.309721336014263, 121.6965634210614 24.309707808302985, 121.69653384017809 24.30429068143378, 121.69357842089599 24.304304205748924, 121.69360787629111 24.309721336014263), (121.73202978591142 24.309540989981222, 121.73498530166941 24.3095267146441, 121.73496969442508 24.306818174428884, 121.7320142414131 24.306832447974056, 121.73202978591142 24.309540989981222), (121.72610332853768 24.306860822559962, 121.7320142414131 24.306832447974056, 121.7319831592769 24.301415361034554, 121.73493848682455 24.301401091073053, 121.73492288646796 24.298692547932607, 121.73787814900177 24.298678222283247, 121.73786248823177 24.295969679966753, 121.73490728840679 24.295984003817246, 121.73489169264093 24.29327545872706, 121.73784682976623 24.29326113667536, 121.73781551974777 24.287844047168182, 121.7289504776121 24.287886830178817, 121.72891955281452 24.282469726025077, 121.72596465954067 24.28248386857293, 121.72599545900223 24.28790097628045, 121.72304043812545 24.287915064930832, 121.72305577857448 24.290623619092862, 121.72601086213335 24.290609528672704, 121.72602626753162 24.293318080090508, 121.7289814115144 24.293303930434803, 121.72899688188029 24.296012479100938, 121.72604167519724 24.29602663053378, 121.72605708513044 24.298735180002446, 121.72310181347005 24.298749275732394, 121.72311716295211 24.301457825996444, 121.72607249733146 24.301443728496423, 121.72610332853768 24.306860822559962))", "dominant_layers": [ "sediment", "coastal" ], "suggested_action": "上游集水區植樹復育、紅樹林／濕地復育" }, { "rank": 2, "center_lat": 24.324388, "center_lon": 121.742461, "gain_score": 0.0014, "area_km2": 0.09, "polygon_wkt": "POLYGON ((121.74099077131979 24.325749190616666, 121.74097502469205 24.323040659860546, 121.74393084739864 24.323026202929434, 121.74394665682715 24.325734731871503, 121.74099077131979 24.325749190616666))", "dominant_layers": [ "sediment", "nitrogen" ], "suggested_action": "上游集水區植樹復育、農業緩衝帶建立" }, { "rank": 3, "center_lat": 24.371468, "center_lon": 121.715136, "gain_score": 0.0006, "area_km2": 0.27, "polygon_wkt": "POLYGON ((121.71466134608004 24.374630404285075, 121.71464612444333 24.37192187509375, 121.71168914712752 24.371935787939186, 121.71167399068737 24.36922725602819, 121.71758781716262 24.3691993761549, 121.71761838412841 24.374616432013475, 121.71466134608004 24.374630404285075))", "dominant_layers": [ "nitrogen", "sediment" ], "suggested_action": "農業緩衝帶建立、上游集水區植樹復育" } ], "liability_index": 0.13330849273097325, "liability_twd": 192670.63758561003, "gain_quality_index": 0.0022, "max_conservation_area": 82.71, "area_needed": 60.5948 }, "geometry": { "type": "Point", "coordinates": [ 121.75194, 24.3006 ] } },
{ "type": "Feature", "properties": { "factory_name": "台泥蘇澳廠", "latitude": 24.58839, "longitude": 121.85322, "area_km2": 0.35, "annual_capacity": 3500000, "isic_codes": "C_23_239", "ncis_score": 30.015063597466487, "crs_near": 63.95980260257452, "crs_mid": 55.413728091928064, "crs_long": 47.659914604756622, "dms_near": 43.592959199509707, "dms_mid": 40.17452939525112, "dms_long": 37.073004000382539, "ecs_score": 62.5, "quadrant": "Warning Zone (Climate)", "nodata_layers": "nitrogen,sediment", "coastal_value_twd": 852243.2740071615, "nature_access_value_twd": 2221807886.6666665, "norm_sediment": 0.3, "norm_nitrogen": 0.3, "norm_coastal": 0.0275785630081587, "norm_nature_access": 0.038882037284642929, "norm_species": 1.0, "norm_red_list": 0.67722798623525449, "norm_endemic": 1.0, "norm_kba": 0.5, "norm_hwdi_near": 0.53148749566321074, "norm_rx5day_near": 0.7477085563882796, "norm_hwdi_mid": 0.39048461603058982, "norm_rx5day_mid": 0.71778994580797129, "norm_hwdi_long": 0.21037432057064595, "norm_rx5day_long": 0.74282397152448643, "gain_sites_json": [ { "rank": 1, "center_lat": 24.600436, "center_lon": 121.803547, "gain_score": 0.0235, "area_km2": 81.36, "polygon_wkt": "POLYGON ((121.81416088266214 24.672064305034795, 121.81414330209789 24.669355945623906, 121.80821553937578 24.669387956197347, 121.80819808933084 24.666679591824433, 121.80227044436224 24.666711364586398, 121.80225312479993 24.664002995280892, 121.79632559764282 24.664034530288024, 121.79630840852649 24.661326156079376, 121.79334470513375 24.661341833956776, 121.79332758247773 24.658633456813973, 121.79036394053185 24.65864907430597, 121.79034688431743 24.655940694236524, 121.78738330381886 24.65595625135751, 121.78736631402738 24.65324786836891, 121.78440279497663 24.6532633651333, 121.78438587158938 24.650554979233043, 121.78142241398689 24.650570415655224, 121.78140555698519 24.647862026850813, 121.77844216083142 24.6478774029452, 121.77842537019663 24.645169011244125, 121.77546203549204 24.645184327025113, 121.77544531120546 24.642475932434873, 121.77248203795052 24.64249118791686, 121.77244872447132 24.637074391987, 121.76948557654244 24.637089585296266, 121.76946898732156 24.634381183964294, 121.7665059008342 24.63439631701069, 121.76647285737324 24.62897950762805, 121.76350989617619 24.628994578552614, 121.76347699004529 24.623577761481155, 121.76051415411146 24.62359277031302, 121.76046500438997 24.615467531718604, 121.75750235749447 24.61548247662844, 121.75745342068325 24.607357223593922, 121.7900402984221 24.607189684284037, 121.7900232895221 24.604481285474993, 121.79298565444844 24.604465706756965, 121.7929685842833 24.60175730890028, 121.79000628310996 24.60177288568046, 121.78995527879844 24.593647680384766, 121.78699316634123 24.59366319308719, 121.78697623359419 24.590954787421246, 121.78401418237553 24.590970239935736, 121.78404792290556 24.59638705412866, 121.78701010156588 24.596371597768044, 121.78704397944898 24.601788404174183, 121.78111936470138 24.60181926630147, 121.78110255200933 24.599110859751747, 121.77517805491253 24.59914148492061, 121.77516137215073 24.596433073575685, 121.77812355818865 24.59641779203267, 121.77809007254338 24.59100097019099, 121.77512801394852 24.59101624793137, 121.77514469182947 24.593724661245908, 121.77218256707741 24.5937398826219, 121.7721659529136 24.591031467413337, 121.76920388944785 24.59104662863669, 121.76918734142282 24.588338210556838, 121.76030132765968 24.58838333905679, 121.7602849731533 24.585674914376128, 121.75732302746624 24.585689838847873, 121.75730673904319 24.58298141132554, 121.75434485466295 24.582996275701937, 121.75429619470944 24.574870981681045, 121.75725788807408 24.574856122855067, 121.75717651744544 24.56131395573084, 121.76013789025534 24.5612990479742, 121.76010523147369 24.55588217795429, 121.76306647468947 24.555867215746137, 121.76301731371063 24.54774190893378, 121.76597836379234 24.54772689417398, 121.76599481195456 24.550435328890256, 121.77191703202004 24.550405121177977, 121.77198335749182 24.561238835153233, 121.77790607657784 24.56120837966872, 121.7778726545842 24.555791532234824, 121.78379510948243 24.55576085168091, 121.78377827498313 24.55305243031042, 121.78081711234789 24.55306779775464, 121.78080034389004 24.550359373485794, 121.78968363366278 24.55031310244965, 121.78971755452055 24.55572993847248, 121.79267877331883 24.5557143946233, 121.79269580106765 24.558422809222243, 121.79565708096735 24.55840720526629, 121.79567417481306 24.561115616937247, 121.79863551581366 24.561099952860147, 121.79860120342715 24.55568313243597, 121.81044603343044 24.555619910110927, 121.81048085460249 24.561036714782176, 121.81344218294976 24.561020759821265, 121.81345966097116 24.563729158692418, 121.81049826901234 24.56374511564069, 121.81053310548086 24.569161914403107, 121.81645614134129 24.569129934358752, 121.816491242586 24.57454672121607, 121.82537615894907 24.574498302610884, 121.82532293818616 24.5663731389312, 121.82236149289871 24.566389330628358, 121.82230848633459 24.558264152031576, 121.81934722929259 24.558280279511397, 121.81929443675381 24.550155086022947, 121.81633336788425 24.550171149329447, 121.81628078919739 24.542045940974766, 121.83404601960173 24.54194872528808, 121.83406392453597 24.544657116941213, 121.8370248506916 24.544640708846682, 121.83707877191826 24.55276587176139, 121.84003988613071 24.552749399379348, 121.84009402182063 24.560874547269382, 121.84305532416286 24.560858010555783, 121.84310967448965 24.568983143395663, 121.84607116503467 24.56896654230649, 121.84612573017195 24.57709166007073, 121.84908740899273 24.57707499456193, 121.84914218911415 24.585200097225044, 121.85210405628374 24.585183367252547, 121.85214071712096 24.590600093263696, 121.83436870983112 24.590699624281203, 121.83440461680476 24.596116371118093, 121.84921526669366 24.5960335536298, 121.8492518215241 24.601450275910974, 121.85517631776561 24.60141673269315, 121.85519472668784 24.604125088180194, 121.84927010295037 24.60415863557098, 121.84930667382629 24.609575351929415, 121.84634423041663 24.609592042341827, 121.84636245609045 24.61230040111596, 121.84339994623863 24.612317035292577, 121.84345444787019 24.62044211189708, 121.84641714910775 24.620425471514103, 121.84643538544628 24.623133826338467, 121.82865875546197 24.623232805932833, 121.82867661152419 24.62594117207504, 121.8227509195602 24.625973702583963, 121.8227686505651 24.628682071782922, 121.82573156168229 24.628665833684785, 121.82578496181287 24.63679092930304, 121.82874806188623 24.636774626770936, 121.8287659310063 24.63948298797627, 121.81691325964668 24.639547855893962, 121.8169484946378 24.64496459146331, 121.81398519256436 24.644980666471795, 121.81400275002258 24.64768903477253, 121.81696611599642 24.647672957766854, 121.81698373993073 24.650381323082897, 121.81402031004718 24.650397402085837, 121.81405543779641 24.655814133749804, 121.81109187749828 24.655830158317585, 121.81110938128542 24.65853852465835, 121.81407300552155 24.658522498100304, 121.81412572410196 24.666647585224922, 121.8170895376401 24.666631494236594, 121.81712482415989 24.672048210050658, 121.81416088266214 24.672064305034795), (121.77509466550671 24.58559941834834, 121.77805659669578 24.585584144410277, 121.77802313064396 24.580167314691156, 121.77506132682342 24.580182584827234, 121.77502799789679 24.574765747368694, 121.76910463761135 24.574796105392526, 121.76912117353255 24.577504528393792, 121.76615942609342 24.577519621961905, 121.766175900764 24.580228045858185, 121.7691377118741 24.580212950410935, 121.76915425263616 24.582921371443877, 121.77507799494535 24.58289100208001, 121.77509466550671 24.58559941834834), (121.78101852543588 24.585568812228473, 121.78398045171774 24.585553421803137, 121.78394673093028 24.5801365997315, 121.78098493201604 24.58015198632585, 121.78101852543588 24.585568812228473), (121.76026862103997 24.582966488711346, 121.76619237784577 24.582936468770328, 121.766175900764 24.580228045858185, 121.76025227131944 24.580258062062526, 121.76026862103997 24.582966488711346))", "dominant_layers": [ "coastal", "nitrogen" ], "suggested_action": "紅樹林／濕地復育、農業緩衝帶建立" }, { "rank": 2, "center_lat": 24.595132, "center_lon": 121.764785, "gain_score": 0.0134, "area_km2": 0.09, "polygon_wkt": "POLYGON ((121.76331260368671 24.596493617016655, 121.76329617827253 24.593785197153966, 121.76625831028961 24.593770150576116, 121.7662747994309 24.59647856856645, 121.76331260368671 24.596493617016655))", "dominant_layers": [ "sediment", "nitrogen" ], "suggested_action": "上游集水區植樹復育、農業緩衝帶建立" }, { "rank": 3, "center_lat": 24.592468, "center_lon": 121.755883, "gain_score": 0.0118, "area_km2": 0.27, "polygon_wkt": "POLYGON ((121.7544260020718 24.596538412724513, 121.7543773065024 24.588413133463206, 121.75733931827298 24.58839826538615, 121.75738820499782 24.596523539095877, 121.7544260020718 24.596538412724513))", "dominant_layers": [ "nitrogen", "sediment" ], "suggested_action": "農業緩衝帶建立、上游集水區植樹復育" } ], "liability_index": 0.10505272259113269, "liability_twd": 2222660129.9406738, "gain_quality_index": 0.0235, "max_conservation_area": 81.36, "area_needed": 4.4703 }, "geometry": { "type": "Point", "coordinates": [ 121.85322, 24.58839 ] } },
{ "type": "Feature", "properties": { "factory_name": "台泥花蓮廠", "latitude": 24.00928, "longitude": 121.63687, "area_km2": 0.15, "annual_capacity": 1500000, "isic_codes": "C_23_239", "ncis_score": 28.878267856538514, "crs_near": 62.994155609331905, "crs_mid": 52.518145641306369, "crs_long": 48.920559598456173, "dms_near": 42.524622957655872, "dms_mid": 38.334218970445654, "dms_long": 36.895184553305576, "ecs_score": 26.785714285714285, "quadrant": "Warning Zone (Climate)", "nodata_layers": "coastal,nature_access,nitrogen,sediment", "coastal_value_twd": 0.0, "nature_access_value_twd": 0.0, "norm_sediment": 0.3, "norm_nitrogen": 0.3, "norm_coastal": 0.3, "norm_nature_access": 0.3, "norm_species": 0.32016331467976267, "norm_red_list": 0.51641789284792239, "norm_endemic": 0.14561580128354182, "norm_kba": 0.0, "norm_hwdi_near": 0.69291337689429855, "norm_rx5day_near": 0.56696973529233952, "norm_hwdi_mid": 0.50494684771142717, "norm_rx5day_mid": 0.54541606511470009, "norm_hwdi_long": 0.35525318439947134, "norm_rx5day_long": 0.62315800756965201, "gain_sites_json": [ { "rank": 1, "center_lat": 24.001538, "center_lon": 121.586361, "gain_score": 0.0432, "area_km2": 86.22, "polygon_wkt": "POLYGON ((121.60688220045968 24.09610538340345, 121.6068694409673 24.093396696095972, 121.59801759180428 24.0934315772349, 121.59799245056021 24.08801419090589, 121.59504195447386 24.088025701163826, 121.59500444251285 24.07989961006474, 121.59205413055365 24.079911059054563, 121.59202925575644 24.0744936572674, 121.58612887420807 24.0745163787892, 121.58610425456715 24.069098967395636, 121.5831541849607 24.06911023997073, 121.58314193980706 24.066401531401134, 121.59199195734696 24.066367547349767, 121.59197952821948 24.06365884211438, 121.58902958612623 24.06367022555915, 121.589017220755 24.060961517919093, 121.58311745493036 24.060984111368438, 121.583105215207 24.058275399905508, 121.58015539148529 24.058286609931443, 121.58014321547257 24.055577896085875, 121.58309297729339 24.0555666874783, 121.58306850689476 24.050149259731363, 121.58601814313195 24.05013799713549, 121.58600584877333 24.047429283241307, 121.5830562744094 24.047440544411806, 121.58304404373312 24.0447318281283, 121.58599355623294 24.044720568383106, 121.58596897660617 24.039303135775015, 121.58301958780719 24.039314392669745, 121.58300736255715 24.036605673494872, 121.58595668951945 24.03659441802527, 121.5859444042503 24.033885699311853, 121.58889366756766 24.03387438848578, 121.5888813222977 24.031165670240977, 121.55938922662864 24.03127620931687, 121.55937750128331 24.028567476110464, 121.55642834383418 24.02857821639431, 121.55639336358344 24.020452006917406, 121.55344438978649 24.020462686373843, 121.55340961035746 24.01233646417492, 121.53866564230033 24.01238899027963, 121.53858671053338 23.993427724887653, 121.54153507547913 23.99341734233466, 121.54148976164784 23.98258231765002, 121.54443787823624 23.982571883715202, 121.54440372556073 23.974445609078636, 121.54735165554948 23.97443512248837, 121.54732877229907 23.96901760391945, 121.5502765773632 23.969007063379035, 121.55025357769868 23.96358954364133, 121.55320125786622 23.96357894917941, 121.55318969900665 23.96087018921384, 121.55613731587898 23.960859539507418, 121.55611408015955 23.955442019397285, 121.55906157217285 23.955431315819574, 121.5590498953402 23.952722555682193, 121.56199732406824 23.952711796895986, 121.56198558742011 23.95000303716381, 121.56493295286322 23.949992223183557, 121.56492115641788 23.94728346386374, 121.56786845857633 23.94727259470388, 121.56785660235204 23.944563835803574, 121.5708038412262 23.944552911478535, 121.57079192524117 23.94184415300489, 121.57373910083132 23.941833173529112, 121.57372712510379 23.939124415489278, 121.57667423741029 23.93911338087721, 121.57666220195851 23.93640462327834, 121.57960925098166 23.936393533544408, 121.57959715582385 23.933684776393644, 121.58549112550212 23.93366243019509, 121.5854789091759 23.930953674922463, 121.59137274864875 23.930931105528305, 121.59136041119109 23.928222352162383, 121.59725412040514 23.92819955963106, 121.59724166185299 23.9254908082004, 121.6001884522321 23.925479328642123, 121.60021349411586 23.93089682762541, 121.5972665808046 23.930908310101085, 121.59727904305153 23.93361705961038, 121.60611996184517 23.93358243826213, 121.60613261040581 23.93629118241258, 121.60318557784892 23.936302780850127, 121.60319816678711 23.93901152551278, 121.60614526084163 23.93899992560198, 121.6061832234018 23.94712614940299, 121.60323594479965 23.947137753733912, 121.60324854120373 23.94984649455174, 121.60619588134001 23.949834888747326, 121.60622120284465 23.955252364551505, 121.60327373961283 23.955263973303083, 121.60328634161817 23.95797271123643, 121.60623386641144 23.957961101011186, 121.60624653185481 23.96066983650914, 121.60919411634198 23.960658168223613, 121.60920684524157 23.963366901278807, 121.60625919917489 23.9633785710453, 121.60627186837186 23.96608730461958, 121.60921957602721 23.96607563337205, 121.60925777970195 23.97420182387931, 121.61220567029135 23.974190091566008, 121.61224407584886 23.98231626894728, 121.61814022113411 23.982292625458562, 121.6181790137264 23.99041878517978, 121.62112726848459 23.990406873939456, 121.62114026485801 23.993115590410373, 121.62408857937096 23.993103620987657, 121.62410163935704 23.995812334977863, 121.62705001362441 23.99580030735848, 121.62708939030487 24.003926438974567, 121.63003794774765 24.003914350079928, 121.63005113891886 24.006623057159413, 121.6271025197517 24.006635147586294, 121.62714191975466 24.0147612676394, 121.59765377038232 24.014879097748512, 121.59767881144207 24.020296536157822, 121.6006277584021 24.020285005511234, 121.60061517517394 24.017576288248925, 121.61830844687948 24.017505921646592, 121.61833435650757 24.02292333737739, 121.62128335201959 24.022911408008508, 121.62129637149836 24.025620112916933, 121.62424542687266 24.02560812527868, 121.62428468229031 24.03373422966392, 121.61543695413216 24.033770035904876, 121.61544985766731 24.03647873997205, 121.6183991641334 24.036466859834146, 121.61841213141236 24.039175561432803, 121.61546276311151 24.039187443074937, 121.61547567046489 24.04189614521346, 121.61252623841072 24.041907971558196, 121.61255193513013 24.047325375936225, 121.61550149089997 24.047313546597106, 121.61551440398203 24.05002224584205, 121.61256478634063 24.05003407667846, 121.61257763945187 24.052742776456068, 121.60962795802884 24.052754551959218, 121.60964075115098 24.05546325226233, 121.61259049446407 24.055451475268963, 121.61260335137739 24.05816017311707, 121.6096535461651 24.058171951600713, 121.60966634307134 24.060880649974283, 121.60671647405843 24.060892373095935, 121.60674194970353 24.066309769914774, 121.60969194256093 24.06629804382665, 121.6097175496212 24.071715433818778, 121.60676743288263 24.071727162873614, 121.60679292359718 24.07714455197181, 121.60974316425349 24.077132819950027, 121.60978160040258 24.085258891906296, 121.6127320251103 24.08524709851656, 121.61277066433168 24.093373157309127, 121.61572127316305 24.093361302507873, 121.61573421873769 24.096069985341984, 121.60688220045968 24.09610538340345), (121.58873332146645 23.99866097616765, 121.59168178003556 23.99864962726784, 121.59166939679598 23.99594089794156, 121.58872099992608 23.995952245402723, 121.58873332146645 23.99866097616765))", "dominant_layers": [ "coastal", "nitrogen" ], "suggested_action": "紅樹林／濕地復育、農業緩衝帶建立" }, { "rank": 2, "center_lat": 24.060499, "center_lon": 121.573698, "gain_score": 0.0162, "area_km2": 1.17, "polygon_wkt": "POLYGON ((121.57724191904722 24.066423903095682, 121.57722979956074 24.063715190731696, 121.57427984841702 24.063726289872513, 121.57426779264188 24.061017575140117, 121.56246821801214 24.06106139754555, 121.56245641166267 24.05835267630479, 121.56540624605071 24.058341807360176, 121.56538251479398 24.05292436473743, 121.56833222363288 24.052913441710324, 121.5683560786839 24.058330881568338, 121.58015539148529 24.058286609931443, 121.5801675692986 24.06099532281278, 121.58311745493036 24.060984111368438, 121.58314193980706 24.066401531401134, 121.57724191904722 24.066423903095682))", "dominant_layers": [ "sediment", "nitrogen" ], "suggested_action": "上游集水區植樹復育、農業緩衝帶建立" }, { "rank": 3, "center_lat": 24.043497, "center_lon": 121.550594, "gain_score": 0.0145, "area_km2": 0.36, "polygon_wkt": "POLYGON ((121.54470021995462 24.044873035015332, 121.544688795217 24.04216429989401, 121.55648667876652 24.042121879597307, 121.55649835093158 24.0448306093484, 121.54470021995462 24.044873035015332))", "dominant_layers": [ "nitrogen", "sediment" ], "suggested_action": "農業緩衝帶建立、上游集水區植樹復育" } ], "liability_index": 0.043317401784807773, "liability_twd": 0.0, "gain_quality_index": 0.0427, "max_conservation_area": 86.22, "area_needed": 1.0145 }, "geometry": { "type": "Point", "coordinates": [ 121.63687, 24.00928 ] } },
{ "type": "Feature", "properties": { "factory_name": "台泥和平礦場", "latitude": 24.29073, "longitude": 121.73622, "area_km2": 1.5, "annual_capacity": 0, "isic_codes": "B_8_81", "ncis_score": 3.5639538188169979, "crs_near": 61.703615982528227, "crs_mid": 49.755435183008757, "crs_long": 48.89359512871507, "dms_near": 26.819818684301492, "dms_mid": 22.040546364493704, "dms_long": 21.69581034277623, "ecs_score": 0.0, "quadrant": "Safe Zone", "nodata_layers": "", "coastal_value_twd": 369862.03111757169, "nature_access_value_twd": 51914533.333333343, "norm_sediment": 0.00054619482947292617, "norm_nitrogen": 0.00014873956782548379, "norm_coastal": 0.002792701938684214, "norm_nature_access": 0.00021198652127043543, "norm_species": 0.77759478178680363, "norm_red_list": 0.0, "norm_endemic": 0.088693916173054152, "norm_kba": 0.018860263415179639, "norm_hwdi_near": 0.4842090762291944, "norm_rx5day_near": 0.74986324342137023, "norm_hwdi_mid": 0.25552036400992878, "norm_rx5day_mid": 0.7395883396502464, "norm_hwdi_long": 0.19360615460086325, "norm_rx5day_long": 0.78426574797343807, "gain_sites_json": [ { "rank": 1, "center_lat": 24.329334, "center_lon": 121.706977, "gain_score": 0.003, "area_km2": 79.29, "polygon_wkt": "POLYGON ((121.7176489600782 24.38003348396504, 121.71761838412841 24.374616432013475, 121.7205754199308 24.37460240205903, 121.72054472703651 24.369185349715572, 121.71758781716262 24.3691993761549, 121.71757253704818 24.366490846760687, 121.71165883647429 24.36651872314075, 121.71164368448808 24.36381018927694, 121.70868689379796 24.363824039239077, 121.70870198284243 24.36653257483859, 121.69983140867815 24.36657378396128, 121.69984631108602 24.369282323748468, 121.70871707410451 24.3692411094618, 121.70874726328236 24.374658175779032, 121.70579021855154 24.37467197500105, 121.70580525348875 24.37738050842366, 121.70284814356978 24.377394251683672, 121.70283317161173 24.374685716539524, 121.69691907114216 24.374713026565175, 121.69690422732428 24.37200448702337, 121.69099024407105 24.372031562920483, 121.69097552835693 24.369323019010302, 121.68506166237721 24.369349860835474, 121.68504707473046 24.36664131258617, 121.68209020147309 24.3666546453227, 121.68207567891355 24.363946094426982, 121.67616205189269 24.363972583590588, 121.67614765733659 24.36126402839975, 121.67319090358298 24.361277184848237, 121.67317657406801 24.358568627033172, 121.67021988113406 24.358581724190778, 121.67020561664175 24.35587316375893, 121.67316224665906 24.355860068242905, 121.67314792135595 24.35315150847749, 121.67019135424601 24.353164602352017, 121.67017709394666 24.35045603997012, 121.66722058763868 24.3504690745827, 121.66723478503971 24.353177638598805, 121.66427821374626 24.353190617217702, 121.66423581647172 24.345064917364194, 121.6612794317688 24.345077833495935, 121.66129349923585 24.347786402708113, 121.65833704958449 24.34779926284572, 121.65832304499787 24.345090692021135, 121.65536665616808 24.345103492939618, 121.65533877890464 24.33968634515695, 121.65238251375922 24.339699085272848, 121.65236864105445 24.336990508322344, 121.64941243672236 24.337003189255118, 121.64937101935027 24.328877447788145, 121.64641500149258 24.32889006638585, 121.64638752568503 24.323472897372753, 121.64343163143083 24.323485455254847, 121.64340428929182 24.31806827919618, 121.64044851861412 24.318080776391657, 121.64035332372099 24.299120618553538, 121.64921931191947 24.29908298744444, 121.64926066232839 24.307208761035607, 121.65517168740222 24.307183376647366, 121.65515777641968 24.30447478961006, 121.65220232764386 24.304487508960175, 121.65217463727556 24.29907032877234, 121.67581716601393 24.298966989975188, 121.67580282217436 24.296258411398103, 121.68171330800855 24.29623200518194, 121.68172777727392 24.298940580442768, 121.68468307971447 24.29892728945249, 121.68469761383109 24.301635862070665, 121.6876529768547 24.301622511921643, 121.68762378532602 24.296205369063998, 121.69648948517198 24.296164983824145, 121.69647470452084 24.293456416006368, 121.69942987076213 24.29344284101527, 121.69944471411567 24.29615140712807, 121.70535516544015 24.29612408131276, 121.70537013640082 24.298832643019868, 121.70241484912425 24.29884633638414, 121.70245958703725 24.306972020818854, 121.70837053576449 24.30694456626961, 121.70838557828709 24.30965312235249, 121.71134111208343 24.309639307089373, 121.71132600681314 24.30693075274069, 121.71428147563952 24.30691688170913, 121.71429664365732 24.309625434316395, 121.72020770010069 24.309597516241567, 121.72019240658852 24.306888967138786, 121.71723694223441 24.306902953175108, 121.71722171371007 24.30419440134176, 121.71426630985326 24.304208328127217, 121.7142511462983 24.301499773570743, 121.71720648742627 24.301485848533773, 121.7171912633828 24.29877729475123, 121.72014653955111 24.298763313982047, 121.72011597277317 24.293346207004692, 121.71716082201597 24.293360184262816, 121.71711517676286 24.285234511223052, 121.71416021181402 24.28524842577058, 121.71414506387232 24.282539864394433, 121.71709996615691 24.282525951594895, 121.71706955166133 24.277108829416697, 121.72297909890437 24.277080838540584, 121.72296376974181 24.274372279507908, 121.72000905988027 24.27438630189513, 121.71999379560134 24.271677740126425, 121.72294844283591 24.271663719501337, 121.72291779579332 24.26624659656688, 121.71996327378494 24.266260613667924, 121.71994801624705 24.263552048978283, 121.72290247565616 24.263538033639147, 121.72288715777482 24.260829469737857, 121.72584155233825 24.260815398781286, 121.7258261741319 24.258106835675502, 121.72878050385009 24.25809270911602, 121.72876506533713 24.25538414681289, 121.73171933021047 24.25536996466503, 121.73175033466141 24.26078708473101, 121.73765910785153 24.260758541165732, 121.73767473868001 24.263467096149622, 121.73472029064219 24.263481398419458, 121.73473586117434 24.266189954227396, 121.73769037181039 24.266175650159585, 121.73770600724288 24.26888420319554, 121.7436151468136 24.26885541926387, 121.74363090978109 24.271563967707834, 121.74067627853528 24.27157839018616, 121.74070768617334 24.27699548777639, 121.74366244267925 24.27698106167273, 121.74367821261036 24.279689607193497, 121.7466330294385 24.279675121848506, 121.74664886434414 24.28238366457464, 121.7496037414941 24.282369119974003, 121.74963554363183 24.28778619884721, 121.74668054114888 24.28780074710264, 121.74671222727963 24.29321782573112, 121.73784682976623 24.29326113667536, 121.73783117360496 24.290552592409146, 121.7407862457358 24.290538214698408, 121.7407705291976 24.287829671263307, 121.7319054939458 24.28787262662611, 121.7318899677366 24.28516407682056, 121.72893501407533 24.285178278589125, 121.72891955281452 24.282469726025077, 121.72596465954067 24.28248386857293, 121.72599545900223 24.28790097628045, 121.72304043812545 24.287915064930832, 121.72305577857448 24.290623619092862, 121.72601086213335 24.290609528672704, 121.72602626753162 24.293318080090508, 121.7289814115144 24.293303930434803, 121.72899688188029 24.296012479100938, 121.72604167519724 24.29602663053378, 121.72605708513044 24.298735180002446, 121.72310181347005 24.298749275732394, 121.72311716295211 24.301457825996444, 121.72607249733146 24.301443728496423, 121.72610332853768 24.306860822559962, 121.7320142414131 24.306832447974056, 121.7319831592769 24.301415361034554, 121.73493848682455 24.301401091073053, 121.73492288646796 24.298692547932607, 121.73787814900177 24.298678222283247, 121.73786248823177 24.295969679966753, 121.743772880959 24.295940859849363, 121.74378866714615 24.298649398546463, 121.74083340923093 24.298663839154475, 121.74086486313033 24.304080917250012, 121.74382024649012 24.304066473015173, 121.74383603964738 24.306775008786616, 121.74679148341951 24.30676050523754, 121.7468390650982 24.314886101236574, 121.74388343306292 24.314900610248344, 121.74391504029525 24.320317673011505, 121.74095928038018 24.320332128128634, 121.74097502469205 24.323040659860546, 121.71732836044323 24.32315424370325, 121.71734360465712 24.325862788711852, 121.74099077131979 24.325749190616666, 121.74100652026362 24.328457720396905, 121.75578623850261 24.328384842017616, 121.75593091176665 24.352761483809292, 121.75297440710902 24.35277619119186, 121.75299043083412 24.355484703906, 121.75594699839327 24.35546999467966, 121.75601136854912 24.3663040283888, 121.75305454929139 24.366318744990984, 121.75308662265724 24.371735759669388, 121.7501296751379 24.371750422286468, 121.75014565238942 24.37445892999645, 121.74718863955584 24.374473536769706, 121.74722047514122 24.3798905529168, 121.74130619054411 24.37991960069641, 121.74129039755314 24.37721108947332, 121.73833331475515 24.377225525011056, 121.73834904476024 24.37993403804247, 121.7176489600782 24.38003348396504), (121.73537622964619 24.377239902859948, 121.73833331475515 24.377225525011056, 121.73831758706103 24.37451701100229, 121.73536056492891 24.37453138705016, 121.73537622964619 24.377239902859948), (121.7264740112488 24.371865646955793, 121.72943097728944 24.37185144573312, 121.72941544309225 24.369142924388942, 121.72645854001058 24.369157123832416, 121.7264740112488 24.371865646955793), (121.69096081480512 24.366614474124162, 121.69687454623136 24.366587405011334, 121.69684487386088 24.361170319095255, 121.69388813510975 24.361183879083853, 121.69387336511922 24.35847533296257, 121.69683004094608 24.358461774673405, 121.69681521021124 24.355753229275788, 121.68794536497336 24.35579372614408, 121.6879600069625 24.35850227661813, 121.69091668712161 24.358488833610863, 121.69096081480512 24.366614474124162), (121.67314792135595 24.35315150847749, 121.682017610015 24.35311188108914, 121.68200309812428 24.350403325316336, 121.67313359815846 24.350442947737037, 121.67314792135595 24.35315150847749), (121.71156795795261 24.35026750531527, 121.71748090350678 24.350239649891538, 121.71746563910546 24.347531113663464, 121.71450923033163 24.347545068434613, 121.71449403105079 24.344836529480947, 121.71153768291914 24.344850424898894, 121.71156795795261 24.35026750531527), (121.68790145191751 24.347668068869428, 121.69085788047038 24.347654632601422, 121.6908431842098 24.344946079910613, 121.68788681853542 24.344959514493972, 121.68790145191751 24.347668068869428), (121.69972715312775 24.347613978125256, 121.70859640608931 24.347572805144402, 121.7085813325623 24.344864262713116, 121.69971226823304 24.3449054305317, 121.69972715312775 24.347613978125256), (121.66719219909729 24.345051943626068, 121.67014857963633 24.345038912281716, 121.67013432562494 24.342330346975366, 121.66717800795651 24.342343376685708, 121.66719219909729 24.345051943626068), (121.67604695466578 24.342304114758324, 121.68787218730456 24.342250959143364, 121.68785755822474 24.3395424028177, 121.68490131612869 24.33955577644135, 121.68488675205064 24.336847217463482, 121.6730620137485 24.336900129411855, 121.67307632642083 24.33960869502634, 121.67603257702785 24.339595551766873, 121.67604695466578 24.342304114758324), (121.73811333723742 24.339306239986488, 121.74106953920436 24.33929182975747, 121.74105378099394 24.33658330388155, 121.73809764187416 24.336597712303366, 121.73811333723742 24.339306239986488), (121.69078442077044 24.33411185939597, 121.69965275053438 24.334071230403993, 121.69963787657873 24.331362677934106, 121.69076973531033 24.331403301829873, 121.69078442077044 24.33411185939597), (121.69963787657873 24.331362677934106, 121.70554995983707 24.33133530749516, 121.70553496242444 24.328626757483683, 121.69962300481026 24.328654124489198, 121.69963787657873 24.331362677934106), (121.64937101935027 24.328877447788145, 121.65232703517796 24.32886477162659, 121.65231317063109 24.326156190780203, 121.65526912160348 24.32614345865246, 121.65525519628872 24.32343487842973, 121.6522993081232 24.323447608960038, 121.65227158922367 24.31803044239873, 121.64931582460582 24.318043112199557, 121.64937101935027 24.328877447788145), (121.70553496242444 24.328626757483683, 121.71735885111322 24.328571332745174, 121.71734360465712 24.325862788711852, 121.70551996721727 24.325918206497125, 121.70553496242444 24.328626757483683), (121.68482851715055 24.326012971804456, 121.68778444508436 24.325999606566146, 121.68776982890661 24.323291044391773, 121.68481396377754 24.323304407953213, 121.68482851715055 24.326012971804456), (121.65525519628872 24.32343487842973, 121.66116696646637 24.323409244722015, 121.66113887080975 24.31799208778804, 121.65818311233485 24.31800493019281, 121.658197096342 24.32071351075845, 121.655241273022 24.32072629723325, 121.65525519628872 24.32343487842973), (121.68185809650808 24.323317713967185, 121.68481396377754 24.323304407953213, 121.68478486345253 24.317887277327532, 121.68182912176522 24.317900580002423, 121.68185809650808 24.323317713967185), (121.65227158922367 24.31803044239873, 121.6552273518031 24.318017715063096, 121.65521343263187 24.315309131919346, 121.65816913038465 24.315296348653522, 121.65815515049113 24.31258776614065, 121.6551995155081 24.312600547802088, 121.65518560043161 24.3098919627114, 121.64927444985464 24.309917350286504, 121.64928823940951 24.31262593856418, 121.64633259831237 24.31263854766452, 121.64634632712571 24.31534713655163, 121.65225773283164 24.315321857657743, 121.65227158922367 24.31803044239873), (121.69363734035458 24.31513846238268, 121.69954867876879 24.31511134264213, 121.69951896365541 24.309694223081003, 121.6965634210614 24.309707808302985, 121.69657821476746 24.312416370276175, 121.69362260723919 24.31242989968563, 121.69363734035458 24.31513846238268), (121.6758889168794 24.312509868256605, 121.68180015554545 24.312483442140866, 121.68177119784711 24.307066300383166, 121.67586021019889 24.307092719865167, 121.6758889168794 24.312509868256605), (121.69360787629111 24.309721336014263, 121.6965634210614 24.309707808302985, 121.69653384017809 24.30429068143378, 121.69357842089599 24.304304205748924, 121.69360787629111 24.309721336014263), (121.73202978591142 24.309540989981222, 121.73498530166941 24.3095267146441, 121.73496969442508 24.306818174428884, 121.7320142414131 24.306832447974056, 121.73202978591142 24.309540989981222), (121.7229944303238 24.279789396599305, 121.72594926320976 24.27977531325783, 121.72593386914518 24.2770667569686, 121.72297909890437 24.277080838540584, 121.7229944303238 24.279789396599305))", "dominant_layers": [ "sediment", "coastal" ], "suggested_action": "上游集水區植樹復育、紅樹林／濕地復育" }, { "rank": 2, "center_lat": 24.324388, "center_lon": 121.742461, "gain_score": 0.0018, "area_km2": 0.09, "polygon_wkt": "POLYGON ((121.74099077131979 24.325749190616666, 121.74097502469205 24.323040659860546, 121.74393084739864 24.323026202929434, 121.74394665682715 24.325734731871503, 121.74099077131979 24.325749190616666))", "dominant_layers": [ "sediment", "nitrogen" ], "suggested_action": "上游集水區植樹復育、農業緩衝帶建立" }, { "rank": 3, "center_lat": 24.295064, "center_lon": 121.638855, "gain_score": 0.0017, "area_km2": 0.09, "polygon_wkt": "POLYGON ((121.63738446175608 24.296424447857987, 121.63737093519408 24.293715847456447, 121.64032614318444 24.293703421844295, 121.64033973245272 24.296412020685224, 121.63738446175608 24.296424447857987))", "dominant_layers": [ "sediment", "nitrogen" ], "suggested_action": "上游集水區植樹復育、農業緩衝帶建立" } ], "liability_index": 0.053459307282254967, "liability_twd": 52284395.364450917, "gain_quality_index": 0.003, "max_conservation_area": 79.29, "area_needed": 17.8198 }, "geometry": { "type": "Point", "coordinates": [ 121.73622, 24.29073 ] } }
]
}
